start=new Date('2023-04-21T00:00:00.000Z').valueOf();
sats=[{"TLE_LINE2":"2 45697  53.0532  89.4222 0001462 100.1429 259.9725 15.06388875159845","REF_FRAME":"TEME","PERIAPSIS":"546.235","ECCENTRICITY":"0.00014620","LAUNCH_DATE":"2020-06-04","PERIOD":"95.593","SEMIMAJOR_AXIS":"6925.383","CENTER_NAME":"EARTH","MEAN_ELEMENT_THEORY":"SGP4","BSTAR":"0.00022853000000","DECAY_DATE":null,"MEAN_MOTION_DOT":"0.00003123","EPHEMERIS_TYPE":"0","CLASSIFICATION_TYPE":"U","NORAD_CAT_ID":"45697","MEAN_ANOMALY":"259.9725","INCLINATION":"53.0532","ELEMENT_SET_NO":"999","TIME_SYSTEM":"UTC","REV_AT_EPOCH":"15984","RA_OF_ASC_NODE":"89.4222","ARG_OF_PERICENTER":"100.1429","TLE_LINE1":"1 45697U 20035AS  23110.41851212  .00003123  00000-0  22853-3 0  9994","MEAN_MOTION_DDOT":"0.0000000000000","GP_ID":"230437997","FILE":"3891056","OBJECT_ID":"2020-035AS","OBJECT_TYPE":"PAYLOAD","MEAN_MOTION":"15.06388875","SITE":"AFETR","RCS_SIZE":"LARGE","OBJECT_NAME":"STARLINK-1351","APOAPSIS":"548.260","EPOCH":"2023-04-20T10:02:39.447168","COUNTRY_CODE":"US"},{"COUNTRY_CODE":"US","APOAPSIS":"548.046","EPOCH":"2023-04-20T16:07:31.493856","OBJECT_NAME":"STARLINK-1370","RCS_SIZE":"LARGE","SITE":"AFETR","OBJECT_ID":"2020-035AT","OBJECT_TYPE":"PAYLOAD","MEAN_MOTION":"15.06395219","GP_ID":"230457901","FILE":"3891109","TLE_LINE1":"1 45698U 20035AT  23110.67189229  .00014839  00000-0  10131-2 0  9996","MEAN_MOTION_DDOT":"0.0000000000000","RA_OF_ASC_NODE":"88.2739","ARG_OF_PERICENTER":"101.5173","REV_AT_EPOCH":"16029","TIME_SYSTEM":"UTC","INCLINATION":"53.0520","ELEMENT_SET_NO":"999","MEAN_ANOMALY":"258.5948","NORAD_CAT_ID":"45698","CLASSIFICATION_TYPE":"U","EPHEMERIS_TYPE":"0","DECAY_DATE":null,"MEAN_MOTION_DOT":"0.00014839","BSTAR":"0.00101310000000","MEAN_ELEMENT_THEORY":"SGP4","CENTER_NAME":"EARTH","PERIOD":"95.592","SEMIMAJOR_AXIS":"6925.363","LAUNCH_DATE":"2020-06-04","ECCENTRICITY":"0.00011810","TLE_LINE2":"2 45698  53.0520  88.2739 0001181 101.5173 258.5948 15.06395219160295","PERIAPSIS":"546.410","REF_FRAME":"TEME"},{"PERIAPSIS":"546.154","REF_FRAME":"TEME","TLE_LINE2":"2 45699  53.0526  88.3299 0001530  96.4448 263.6715 15.06400006160288","ECCENTRICITY":"0.00015300","LAUNCH_DATE":"2020-06-04","CENTER_NAME":"EARTH","SEMIMAJOR_AXIS":"6925.349","PERIOD":"95.592","MEAN_MOTION_DOT":"0.00005710","DECAY_DATE":null,"MEAN_ELEMENT_THEORY":"SGP4","BSTAR":"0.00040189000000","EPHEMERIS_TYPE":"0","NORAD_CAT_ID":"45699","CLASSIFICATION_TYPE":"U","ELEMENT_SET_NO":"999","INCLINATION":"53.0526","MEAN_ANOMALY":"263.6715","TIME_SYSTEM":"UTC","ARG_OF_PERICENTER":"96.4448","RA_OF_ASC_NODE":"88.3299","REV_AT_EPOCH":"16028","MEAN_MOTION_DDOT":"0.0000000000000","TLE_LINE1":"1 45699U 20035AU  23110.66179160  .00005710  00000-0  40189-3 0  9994","MEAN_MOTION":"15.06400006","OBJECT_ID":"2020-035AU","OBJECT_TYPE":"PAYLOAD","FILE":"3891109","GP_ID":"230458153","RCS_SIZE":"LARGE","SITE":"AFETR","OBJECT_NAME":"STARLINK-1398","EPOCH":"2023-04-20T15:52:58.794240","APOAPSIS":"548.273","COUNTRY_CODE":"US"},{"APOAPSIS":"547.987","EPOCH":"2023-04-20T15:47:39.701760","COUNTRY_CODE":"US","RCS_SIZE":"LARGE","SITE":"AFETR","OBJECT_NAME":"STARLINK-1400","TLE_LINE1":"1 45700U 20035AV  23110.65809840  .00007517  00000-0  52295-3 0  9999","MEAN_MOTION_DDOT":"0.0000000000000","OBJECT_TYPE":"PAYLOAD","OBJECT_ID":"2020-035AV","MEAN_MOTION":"15.06401650","GP_ID":"230458404","FILE":"3891109","TIME_SYSTEM":"UTC","RA_OF_ASC_NODE":"88.3461","ARG_OF_PERICENTER":"96.4642","REV_AT_EPOCH":"16028","NORAD_CAT_ID":"45700","CLASSIFICATION_TYPE":"U","INCLINATION":"53.0516","ELEMENT_SET_NO":"999","MEAN_ANOMALY":"263.6475","DECAY_DATE":null,"MEAN_MOTION_DOT":"0.00007517","MEAN_ELEMENT_THEORY":"SGP4","BSTAR":"0.00052295000000","EPHEMERIS_TYPE":"0","LAUNCH_DATE":"2020-06-04","CENTER_NAME":"EARTH","PERIOD":"95.592","SEMIMAJOR_AXIS":"6925.344","TLE_LINE2":"2 45700  53.0516  88.3461 0001124  96.4642 263.6475 15.06401650160285","REF_FRAME":"TEME","PERIAPSIS":"546.430","ECCENTRICITY":"0.00011240"},{"MEAN_ELEMENT_THEORY":"SGP4","BSTAR":"0.00061477000000","MEAN_MOTION_DOT":"0.00008888","DECAY_DATE":null,"EPHEMERIS_TYPE":"0","CLASSIFICATION_TYPE":"U","NORAD_CAT_ID":"45701","MEAN_ANOMALY":"261.0947","ELEMENT_SET_NO":"999","INCLINATION":"53.0545","PERIAPSIS":"546.464","REF_FRAME":"TEME","TLE_LINE2":"2 45701  53.0545  89.7010 0001076  99.0164 261.0947 15.06401458160234","ECCENTRICITY":"0.00010760","LAUNCH_DATE":"2020-06-04","SEMIMAJOR_AXIS":"6925.344","PERIOD":"95.592","CENTER_NAME":"EARTH","SITE":"AFETR","RCS_SIZE":"LARGE","OBJECT_NAME":"STARLINK-1403","APOAPSIS":"547.954","EPOCH":"2023-04-20T08:32:25.364832","COUNTRY_CODE":"US","TIME_SYSTEM":"UTC","REV_AT_EPOCH":"16023","ARG_OF_PERICENTER":"99.0164","RA_OF_ASC_NODE":"89.7010","MEAN_MOTION_DDOT":"0.0000000000000","TLE_LINE1":"1 45701U 20035AW  23110.35584913  .00008888  00000-0  61477-3 0  9992","FILE":"3890827","GP_ID":"230425127","MEAN_MOTION":"15.06401458","OBJECT_TYPE":"PAYLOAD","OBJECT_ID":"2020-035AW"},{"MEAN_ANOMALY":"262.8239","ELEMENT_SET_NO":"999","INCLINATION":"53.0518","CLASSIFICATION_TYPE":"U","NORAD_CAT_ID":"45702","EPHEMERIS_TYPE":"0","MEAN_ELEMENT_THEORY":"SGP4","BSTAR":"0.00031121000000","MEAN_MOTION_DOT":"0.00004357","DECAY_DATE":null,"SEMIMAJOR_AXIS":"6925.337","PERIOD":"95.592","CENTER_NAME":"EARTH","LAUNCH_DATE":"2020-06-04","ECCENTRICITY":"0.00013850","PERIAPSIS":"546.243","REF_FRAME":"TEME","TLE_LINE2":"2 45702  53.0518  88.2968 0001385  97.2907 262.8239 15.06403683160289","COUNTRY_CODE":"US","EPOCH":"2023-04-20T16:03:34.724160","APOAPSIS":"548.161","OBJECT_NAME":"STARLINK-1405","SITE":"AFETR","RCS_SIZE":"LARGE","FILE":"3891109","GP_ID":"230457402","MEAN_MOTION":"15.06403683","OBJECT_TYPE":"PAYLOAD","OBJECT_ID":"2020-035AX","MEAN_MOTION_DDOT":"0.0000000000000","TLE_LINE1":"1 45702U 20035AX  23110.66915190  .00004357  00000-0  31121-3 0  9992","REV_AT_EPOCH":"16028","ARG_OF_PERICENTER":"97.2907","RA_OF_ASC_NODE":"88.2968","TIME_SYSTEM":"UTC"},{"OBJECT_NAME":"STARLINK-1407","SITE":"AFETR","RCS_SIZE":"LARGE","COUNTRY_CODE":"US","APOAPSIS":"548.107","EPOCH":"2023-04-20T15:58:16.575168","REV_AT_EPOCH":"16028","RA_OF_ASC_NODE":"88.3165","ARG_OF_PERICENTER":"85.5628","TIME_SYSTEM":"UTC","GP_ID":"230458653","FILE":"3891109","OBJECT_TYPE":"PAYLOAD","OBJECT_ID":"2020-035AY","MEAN_MOTION":"15.06387372","TLE_LINE1":"1 45703U 20035AY  23110.66546962  .00013914  00000-0  95148-3 0  9998","MEAN_MOTION_DDOT":"0.0000000000000","EPHEMERIS_TYPE":"0","BSTAR":"0.00095148000000","MEAN_ELEMENT_THEORY":"SGP4","DECAY_DATE":null,"MEAN_MOTION_DOT":"0.00013914","MEAN_ANOMALY":"274.5502","INCLINATION":"53.0533","ELEMENT_SET_NO":"999","CLASSIFICATION_TYPE":"U","NORAD_CAT_ID":"45703","ECCENTRICITY":"0.00012340","TLE_LINE2":"2 45703  53.0533  88.3165 0001234  85.5628 274.5502 15.06387372160289","REF_FRAME":"TEME","PERIAPSIS":"546.398","PERIOD":"95.593","SEMIMAJOR_AXIS":"6925.387","CENTER_NAME":"EARTH","LAUNCH_DATE":"2020-06-04"},{"MEAN_ANOMALY":"261.1547","INCLINATION":"53.0531","ELEMENT_SET_NO":"999","CLASSIFICATION_TYPE":"U","NORAD_CAT_ID":"45704","EPHEMERIS_TYPE":"0","BSTAR":"0.00005211400000","MEAN_ELEMENT_THEORY":"SGP4","DECAY_DATE":null,"MEAN_MOTION_DOT":"0.00000495","PERIOD":"95.593","SEMIMAJOR_AXIS":"6925.370","CENTER_NAME":"EARTH","LAUNCH_DATE":"2020-06-04","ECCENTRICITY":"0.00015210","TLE_LINE2":"2 45704  53.0531 119.0914 0001521  98.9614 261.1547 15.06393069159845","PERIAPSIS":"546.181","REF_FRAME":"TEME","COUNTRY_CODE":"US","APOAPSIS":"548.288","EPOCH":"2023-04-20T11:48:46.810944","OBJECT_NAME":"STARLINK-1409","SITE":"AFETR","RCS_SIZE":"LARGE","GP_ID":"230424377","FILE":"3890827","OBJECT_TYPE":"PAYLOAD","OBJECT_ID":"2020-035AZ","MEAN_MOTION":"15.06393069","TLE_LINE1":"1 45704U 20035AZ  23110.49220846  .00000495  00000-0  52114-4 0  9997","MEAN_MOTION_DDOT":"0.0000000000000","REV_AT_EPOCH":"15984","RA_OF_ASC_NODE":"119.0914","ARG_OF_PERICENTER":"98.9614","TIME_SYSTEM":"UTC"},{"MEAN_ANOMALY":"257.7278","ELEMENT_SET_NO":"999","INCLINATION":"53.0549","CLASSIFICATION_TYPE":"U","NORAD_CAT_ID":"45705","EPHEMERIS_TYPE":"0","BSTAR":"0.00042542000000","MEAN_ELEMENT_THEORY":"SGP4","MEAN_MOTION_DOT":"0.00006057","DECAY_DATE":null,"SEMIMAJOR_AXIS":"6925.411","PERIOD":"95.593","CENTER_NAME":"EARTH","LAUNCH_DATE":"2020-06-04","ECCENTRICITY":"0.00012070","PERIAPSIS":"546.440","REF_FRAME":"TEME","TLE_LINE2":"2 45705  53.0549 120.1674 0001207 102.3846 257.7278 15.06379777159795","COUNTRY_CODE":"US","EPOCH":"2023-04-20T06:05:08.986272","APOAPSIS":"548.111","OBJECT_NAME":"STARLINK-1410","SITE":"AFETR","RCS_SIZE":"LARGE","FILE":"3890827","GP_ID":"230424627","MEAN_MOTION":"15.06379777","OBJECT_TYPE":"PAYLOAD","OBJECT_ID":"2020-035BA","MEAN_MOTION_DDOT":"0.0000000000000","TLE_LINE1":"1 45705U 20035BA  23110.25357623  .00006057  00000-0  42542-3 0  9999","REV_AT_EPOCH":"15979","ARG_OF_PERICENTER":"102.3846","RA_OF_ASC_NODE":"120.1674","TIME_SYSTEM":"UTC"},{"CENTER_NAME":"EARTH","PERIOD":"95.592","SEMIMAJOR_AXIS":"6925.364","LAUNCH_DATE":"2020-06-04","ECCENTRICITY":"0.00013030","TLE_LINE2":"2 45706  53.0553  88.4188 0001303 102.9361 257.1773 15.06394929160277","PERIAPSIS":"546.327","REF_FRAME":"TEME","INCLINATION":"53.0553","ELEMENT_SET_NO":"999","MEAN_ANOMALY":"257.1773","NORAD_CAT_ID":"45706","CLASSIFICATION_TYPE":"U","EPHEMERIS_TYPE":"0","DECAY_DATE":null,"MEAN_MOTION_DOT":"0.00007520","BSTAR":"0.00052324000000","MEAN_ELEMENT_THEORY":"SGP4","OBJECT_TYPE":"PAYLOAD","OBJECT_ID":"2020-035BB","MEAN_MOTION":"15.06394929","GP_ID":"230457902","FILE":"3891109","TLE_LINE1":"1 45706U 20035BB  23110.64334528  .00007520  00000-0  52324-3 0  9997","MEAN_MOTION_DDOT":"0.0000000000000","RA_OF_ASC_NODE":"88.4188","ARG_OF_PERICENTER":"102.9361","REV_AT_EPOCH":"16027","TIME_SYSTEM":"UTC","COUNTRY_CODE":"US","EPOCH":"2023-04-20T15:26:25.032192","APOAPSIS":"548.131","OBJECT_NAME":"STARLINK-1411","RCS_SIZE":"LARGE","SITE":"AFETR"}];
